{
    "week": 293,
    "satellites": [
        {
            "Name": "GSAT0101 (GALILEO-PFM)",
            "Line1": "1 37846U 11060A   24327.51457137 -.00000093  00000+0  00000+0 0  9998",
            "Line2": "2 37846  57.1206 357.2516 0002160 305.1216  54.9071  1.70475870 81371",
            "SatelliteNumber": "37846",
            "Classification": "U",
            "LaunchYear": "11",
            "LaunchNumber": "060",
            "PieceOfLaunch": "A",
            "EpochYear": "24",
            "EpochDay": 327.51457137,
            "FirstDerivativeMeanMotion": -9.3e-07,
            "SecondDerivativeMeanMotion": "00000+0",
            "BSTAR": "00000+0",
            "SetNumber": "999",
            "Inclination": 57.1206,
            "RAAN": 357.2516,
            "Eccentricity": 0.000216,
            "ArgumentOfPerigee": 305.1216,
            "MeanAnomaly": 54.9071,
            "MeanMotion": 1.7047587,
            "RevolutionNumber": "8137"
        },
        {
            "Name": "GSAT0102 (GALILEO-FM2)",
            "Line1": "1 37847U 11060B   24326.26500510 -.00000095  00000+0  00000+0 0  9996",
            "Line2": "2 37847  57.1214 357.2857 0004090 300.1298  58.4099  1.70475324 81359",
            "SatelliteNumber": "37847",
            "Classification": "U",
            "LaunchYear": "11",
            "LaunchNumber": "060",
            "PieceOfLaunch": "B",
            "EpochYear": "24",
            "EpochDay": 326.2650051,
            "FirstDerivativeMeanMotion": -9.5e-07,
            "SecondDerivativeMeanMotion": "00000+0",
            "BSTAR": "00000+0",
            "SetNumber": "999",
            "Inclination": 57.1214,
            "RAAN": 357.2857,
            "Eccentricity": 0.000409,
            "ArgumentOfPerigee": 300.1298,
            "MeanAnomaly": 58.4099,
            "MeanMotion": 1.70475324,
            "RevolutionNumber": "8135"
        },
        {
            "Name": "GSAT0103 (GALILEO-FM3)",
            "Line1": "1 38857U 12055A   24326.38078586  .00000045  00000+0  00000+0 0  9993",
            "Line2": "2 38857  55.4956 117.2839 0002261 247.2110 112.7438  1.70473594 75240",
            "SatelliteNumber": "38857",
            "Classification": "U",
            "LaunchYear": "12",
            "LaunchNumber": "055",
            "PieceOfLaunch": "A",
            "EpochYear": "24",
            "EpochDay": 326.38078586,
            "FirstDerivativeMeanMotion": 4.5e-07,
            "SecondDerivativeMeanMotion": "00000+0",
            "BSTAR": "00000+0",
            "SetNumber": "999",
            "Inclination": 55.4956,
            "RAAN": 117.2839,
            "Eccentricity": 0.0002261,
            "ArgumentOfPerigee": 247.211,
            "MeanAnomaly": 112.7438,
            "MeanMotion": 1.70473594,
            "RevolutionNumber": "7524"
        },
        {
            "Name": "GSAT0201 (GALILEO 5)",
            "Line1": "1 40128U 14050A   24325.39482399 -.00000070  00000+0  00000+0 0  9994",
            "Line2": "2 40128  49.4981 296.7730 1615240 157.3295 210.7154  1.85519539 67679",
            "SatelliteNumber": "40128",
            "Classification": "U",
            "LaunchYear": "14",
            "LaunchNumber": "050",
            "PieceOfLaunch": "A",
            "EpochYear": "24",
            "EpochDay": 325.39482399,
            "FirstDerivativeMeanMotion": -7e-07,
            "SecondDerivativeMeanMotion": "00000+0",
            "BSTAR": "00000+0",
            "SetNumber": "999",
            "Inclination": 49.4981,
            "RAAN": 296.773,
            "Eccentricity": 0.161524,
            "ArgumentOfPerigee": 157.3295,
            "MeanAnomaly": 210.7154,
            "MeanMotion": 1.85519539,
            "RevolutionNumber": "6767"
        },
        {
            "Name": "GSAT0202 (GALILEO 6)",
            "Line1": "1 40129U 14050B   24327.26949598 -.00000077  00000+0  00000+0 0  9999",
            "Line2": "2 40129  49.5119 295.7766 1614693 158.1911 209.5673  1.85520398 69878",
            "SatelliteNumber": "40129",
            "Classification": "U",
            "LaunchYear": "14",
            "LaunchNumber": "050",
            "PieceOfLaunch": "B",
            "EpochYear": "24",
            "EpochDay": 327.26949598,
            "FirstDerivativeMeanMotion": -7.7e-07,
            "SecondDerivativeMeanMotion": "00000+0",
            "BSTAR": "00000+0",
            "SetNumber": "999",
            "Inclination": 49.5119,
            "RAAN": 295.7766,
            "Eccentricity": 0.1614693,
            "ArgumentOfPerigee": 158.1911,
            "MeanAnomaly": 209.5673,
            "MeanMotion": 1.85520398,
            "RevolutionNumber": "6987"
        },
        {
            "Name": "GSAT0203 (GALILEO 7)",
            "Line1": "1 40544U 15017A   24325.53365815 -.00000096  00000+0  00000+0 0  9997",
            "Line2": "2 40544  56.9155 357.2182 0005985 259.2945 100.6872  1.70476103 60088",
            "SatelliteNumber": "40544",
            "Classification": "U",
            "LaunchYear": "15",
            "LaunchNumber": "017",
            "PieceOfLaunch": "A",
            "EpochYear": "24",
            "EpochDay": 325.53365815,
            "FirstDerivativeMeanMotion": -9.6e-07,
            "SecondDerivativeMeanMotion": "00000+0",
            "BSTAR": "00000+0",
            "SetNumber": "999",
            "Inclination": 56.9155,
            "RAAN": 357.2182,
            "Eccentricity": 0.0005985,
            "ArgumentOfPerigee": 259.2945,
            "MeanAnomaly": 100.6872,
            "MeanMotion": 1.70476103,
            "RevolutionNumber": "6008"
        },
        {
            "Name": "GSAT0204 (GALILEO 8)",
            "Line1": "1 40545U 15017B   24326.96145907 -.00000094  00000+0  00000+0 0  9992",
            "Line2": "2 40545  56.9218 357.1952 0005789 250.3204 109.6656  1.70475746 22499",
            "SatelliteNumber": "40545",
            "Classification": "U",
            "LaunchYear": "15",
            "LaunchNumber": "017",
            "PieceOfLaunch": "B",
            "EpochYear": "24",
            "EpochDay": 326.96145907,
            "FirstDerivativeMeanMotion": -9.4e-07,
            "SecondDerivativeMeanMotion": "00000+0",
            "BSTAR": "00000+0",
            "SetNumber": "999",
            "Inclination": 56.9218,
            "RAAN": 357.1952,
            "Eccentricity": 0.0005789,
            "ArgumentOfPerigee": 250.3204,
            "MeanAnomaly": 109.6656,
            "MeanMotion": 1.70475746,
            "RevolutionNumber": "2249"
        },
        {
            "Name": "GSAT0205 (GALILEO 9)",
            "Line1": "1 40889U 15045A   24324.38356794 -.00000013  00000+0  00000+0 0  9997",
            "Line2": "2 40889  55.1506 237.4841 0005263  30.4286 329.6488  1.70472877 57219",
            "SatelliteNumber": "40889",
            "Classification": "U",
            "LaunchYear": "15",
            "LaunchNumber": "045",
            "PieceOfLaunch": "A",
            "EpochYear": "24",
            "EpochDay": 324.38356794,
            "FirstDerivativeMeanMotion": -1.3e-07,
            "SecondDerivativeMeanMotion": "00000+0",
            "BSTAR": "00000+0",
            "SetNumber": "999",
            "Inclination": 55.1506,
            "RAAN": 237.4841,
            "Eccentricity": 0.0005263,
            "ArgumentOfPerigee": 30.4286,
            "MeanAnomaly": 329.6488,
            "MeanMotion": 1.70472877,
            "RevolutionNumber": "5721"
        },
        {
            "Name": "GSAT0206 (GALILEO 10)",
            "Line1": "1 40890U 15045B   24326.36392849 -.00000024  00000+0  00000+0 0  9992",
            "Line2": "2 40890  55.1487 237.4249 0003164   7.9867 352.0637  1.70472981 57271",
            "SatelliteNumber": "40890",
            "Classification": "U",
            "LaunchYear": "15",
            "LaunchNumber": "045",
            "PieceOfLaunch": "B",
            "EpochYear": "24",
            "EpochDay": 326.36392849,
            "FirstDerivativeMeanMotion": -2.4e-07,
            "SecondDerivativeMeanMotion": "00000+0",
            "BSTAR": "00000+0",
            "SetNumber": "999",
            "Inclination": 55.1487,
            "RAAN": 237.4249,
            "Eccentricity": 0.0003164,
            "ArgumentOfPerigee": 7.9867,
            "MeanAnomaly": 352.0637,
            "MeanMotion": 1.70472981,
            "RevolutionNumber": "5727"
        },
        {
            "Name": "GSAT0209 (GALILEO 12)",
            "Line1": "1 41174U 15079A   24325.36005195  .00000040  00000+0  00000+0 0  9996",
            "Line2": "2 41174  55.5045 117.0226 0001881 351.7146   8.2571  1.70474419 55579",
            "SatelliteNumber": "41174",
            "Classification": "U",
            "LaunchYear": "15",
            "LaunchNumber": "079",
            "PieceOfLaunch": "A",
            "EpochYear": "24",
            "EpochDay": 325.36005195,
            "FirstDerivativeMeanMotion": 4e-07,
            "SecondDerivativeMeanMotion": "00000+0",
            "BSTAR": "00000+0",
            "SetNumber": "999",
            "Inclination": 55.5045,
            "RAAN": 117.0226,
            "Eccentricity": 0.0001881,
            "ArgumentOfPerigee": 351.7146,
            "MeanAnomaly": 8.2571,
            "MeanMotion": 1.70474419,
            "RevolutionNumber": "5557"
        }
    ]
}